{"type":"FeatureCollection","features":[{"type":"Feature","id":"11:restricted-areas.1","geometry":{"type":"MultiPolygon","coordinates":[[[[27.82919635,-15.36819513],[27.8944758,-15.36791745],[27.8944758,-15.39513743],[28.04364649,-15.39458185],[28.0436465,-15.43957819],[28.12725983,-15.38236064],[28.12837099,-15.54762498],[28.04420213,-15.54818045],[28.04420213,-15.53012642],[27.92308779,-15.53068189],[27.92280997,-15.47624192],[27.82947408,-15.47679749],[27.82919635,-15.36819513]]]]},"geometry_name":"the_geom","properties":{"OBJECTID":1,"Name":"LPL 127","Shape.area":0.037284331881025,"Shape.len":1.032995088930321,"Code":"13339-HQ-LPL","Parties":"TEAL Development Zambia Limited (100%)","Resource":"","Status":"Expired","Granted":"","Expires":"","guidShap":"436dff02-3e63-4be7-905e-80eab50559c7","guidLice":"4469ac2e-b99e-47cd-94dd-422407df72d4","guidSpat":"dc716c43-74f5-4de0-a1a0-2b7840442632","Id":0,"Perimeter":0,"Acres":0,"Hectares":0,"SDEZambia.":0}},{"type":"Feature","id":"11:restricted-areas.10","geometry":{"type":"MultiPolygon","coordinates":[[[[25.64649935,-13.10668762],[25.67333336,-13.10718758],[25.67955573,-13.03419369],[25.73080709,-13.03444368],[25.72864038,-13.45210318],[25.74552973,-13.45140884],[25.74258509,-14.00383512],[25.6414157,-14.00330735],[25.64649935,-13.10668762]]]]},"geometry_name":"the_geom","properties":{"OBJECTID":10,"Name":"","Shape.area":0.088685825537861,"Shape.len":2.136313383802935,"Code":"LPL 332","Parties":"Kasai Mining and Exploration Limited (100%)","Resource":"Cu","Status":"Expired","Granted":"","Expires":"","guidShap":"6495179a-256e-422e-b8cd-92f17392a7a4","guidLice":"4469ac2e-b99e-47cd-94dd-422407df72d4","guidSpat":"dc716c43-74f5-4de0-a1a0-2b7840442632","Id":0,"Perimeter":0,"Acres":0,"Hectares":0,"SDEZambia.":0}},{"type":"Feature","id":"11:restricted-areas.11","geometry":{"type":"MultiPolygon","coordinates":[[[[28.14768683,-13.35325207],[28.14731531,-13.27240132],[28.17694839,-13.25609208],[28.23303858,-13.24769058],[28.27253892,-13.22653164],[28.24885867,-13.1134503],[28.85091786,-13.32645888],[28.93121262,-13.45841835],[28.89197959,-13.51044072],[28.49553208,-13.52282017],[28.14768683,-13.35325207]]]]},"geometry_name":"the_geom","properties":{"OBJECTID":11,"Name":"","Shape.area":0.185081979818717,"Shape.len":1.973612743328505,"Code":"LPL 334","Parties":"Kasai Mining and Exploration Limited (100%)","Resource":"Cu","Status":"Expired","Granted":"","Expires":"","guidShap":"b6ecb822-2500-4a15-8a91-80a57e4b5469","guidLice":"4469ac2e-b99e-47cd-94dd-422407df72d4","guidSpat":"dc716c43-74f5-4de0-a1a0-2b7840442632","Id":0,"Perimeter":0,"Acres":0,"Hectares":0,"SDEZambia.":0}},{"type":"Feature","id":"11:restricted-areas.12","geometry":{"type":"MultiPolygon","coordinates":[[[[24.52138293,-11.89718061],[24.52042058,-12.00288897],[24.39074736,-12.00170945],[24.40620777,-11.98866235],[24.41608873,-11.9928194],[24.41952472,-11.98664413],[24.4262418,-11.98670592],[24.44174581,-11.96781102],[24.46828341,-11.97389761],[24.48943227,-11.96443792],[24.50508149,-11.95214466],[24.5052469,-11.93408409],[24.51747522,-11.9233495],[24.52138293,-11.89718061]]]]},"geometry_name":"the_geom","properties":{"OBJECTID":12,"Name":"","Shape.area":0.004203568113215,"Shape.len":0.435664495166084,"Code":"LPL 349","Parties":"Peninsula Limited (100%)","Resource":"Cu","Status":"Expired","Granted":"","Expires":"","guidShap":"5aa5bcd6-6c08-4af1-99e7-56b73a3128f1","guidLice":"4469ac2e-b99e-47cd-94dd-422407df72d4","guidSpat":"dc716c43-74f5-4de0-a1a0-2b7840442632","Id":0,"Perimeter":0,"Acres":0,"Hectares":0,"SDEZambia.":0}},{"type":"Feature","id":"11:restricted-areas.13","geometry":{"type":"MultiPolygon","coordinates":[[[[24.73796284,-13.36042718],[24.73696751,-13.35597675],[24.75073788,-13.35476665],[24.75340795,-13.36031639],[24.74630776,-13.36750579],[24.74568374,-13.36704182],[24.73819754,-13.36147609],[24.73796284,-13.36042718]]]]},"geometry_name":"the_geom","properties":{"OBJECTID":13,"Name":"","Shape.area":1.32930833061E-4,"Shape.len":0.045828731840896,"Code":"SML 146","Parties":"Neelkanth Group Zambia Limited (100%)","Resource":"Cu","Status":"Expired","Granted":"","Expires":"","guidShap":"1111672b-8115-4403-9198-e517b4b9dca5","guidLice":"6360a3a9-3cec-4032-897b-2b5ff4467a1b","guidSpat":"dc716c43-74f5-4de0-a1a0-2b7840442632","Id":0,"Perimeter":0,"Acres":0,"Hectares":0,"SDEZambia.":0}},{"type":"Feature","id":"11:restricted-areas.14","geometry":{"type":"MultiPolygon","coordinates":[[[[26.72387008,-12.53100598],[26.72384008,-12.55814369],[26.7054296,-12.5581237],[26.7054396,-12.54907446],[26.71464984,-12.54908446],[26.71466984,-12.53099598],[26.72387008,-12.53100598]]]]},"geometry_name":"the_geom","properties":{"OBJECTID":14,"Name":"","Shape.area":3.33038998134E-4,"Shape.len":0.091100054351277,"Code":"SML 183","Parties":"Venture Mining Limited (100%)","Resource":"Au","Status":"Expired","Granted":"","Expires":"","guidShap":"3f77bda6-31bc-4f96-b111-9fc6326fb05b","guidLice":"6360a3a9-3cec-4032-897b-2b5ff4467a1b","guidSpat":"dc716c43-74f5-4de0-a1a0-2b7840442632","Id":0,"Perimeter":0,"Acres":0,"Hectares":0,"SDEZambia.":0}},{"type":"Feature","id":"11:restricted-areas.15","geometry":{"type":"MultiPolygon","coordinates":[[[[28.665412,-15.31531489],[28.66624202,-15.30265593],[28.69427277,-15.3151049],[28.69250273,-15.32596402],[28.665412,-15.31531489]]]]},"geometry_name":"the_geom","properties":{"OBJECTID":15,"Name":"","Shape.area":3.39120599723E-4,"Shape.len":0.083469293052269,"Code":"SML 191","Parties":"Mediterranean Mining Limited (100%)","Resource":"Cu","Status":"Expired","Granted":"","Expires":"","guidShap":"931f5236-7f5e-4af4-93eb-d56a78fab346","guidLice":"6360a3a9-3cec-4032-897b-2b5ff4467a1b","guidSpat":"dc716c43-74f5-4de0-a1a0-2b7840442632","Id":0,"Perimeter":0,"Acres":0,"Hectares":0,"SDEZambia.":0}},{"type":"Feature","id":"11:restricted-areas.16","geometry":{"type":"MultiPolygon","coordinates":[[[[25.704543,-13.84794585],[25.72305349,-13.84804584],[25.72300349,-13.85708509],[25.704493,-13.85698509],[25.704543,-13.84794585]]]]},"geometry_name":"the_geom","properties":{"OBJECTID":16,"Name":"","Shape.area":1.67335393817E-4,"Shape.len":0.055100816263393,"Code":"SML 195","Parties":"Cona Mining Limited (100%)","Resource":"Cu","Status":"Expired","Granted":"","Expires":"","guidShap":"47b61e7a-4cd8-4efc-a82d-08774ae1011e","guidLice":"6360a3a9-3cec-4032-897b-2b5ff4467a1b","guidSpat":"dc716c43-74f5-4de0-a1a0-2b7840442632","Id":0,"Perimeter":0,"Acres":0,"Hectares":0,"SDEZambia.":0}},{"type":"Feature","id":"11:restricted-areas.17","geometry":{"type":"MultiPolygon","coordinates":[[[[30.50009892,-10.00170023],[31.00011196,-10.00170007],[31.00011272,-12.00152977],[30.50009959,-12.00152996],[30.50009892,-10.00170023]]]]},"geometry_name":"the_geom","properties":{"OBJECTID":17,"Name":"Geological Survey Restricted Area","Shape.area":0.999999967674367,"Shape.len":5.000000043966856,"Code":"","Parties":"","Resource":"","Status":"","Granted":"","Expires":"","guidShap":"","guidLice":"","guidSpat":"","Id":0,"Perimeter":0,"Acres":0,"Hectares":0,"SDEZambia.":0}},{"type":"Feature","id":"11:restricted-areas.2","geometry":{"type":"MultiPolygon","coordinates":[[[[27.77317781,-12.53184585],[27.80634869,-12.54441479],[27.78807821,-12.58967099],[27.76632765,-12.70548126],[28.00821407,-12.85294885],[28.0170943,-12.86339797],[28.0317025,-12.9811943],[27.97810329,-12.98147808],[27.92319184,-13.05622183],[27.92343885,-13.05651551],[27.82843933,-13.06244132],[27.57507261,-12.8470294],[27.57521258,-12.49608888],[27.79146829,-12.4955489],[27.77317781,-12.53184585]]]]},"geometry_name":"the_geom","properties":{"OBJECTID":2,"Name":"LPL 100","Shape.area":0.149938899281223,"Shape.len":1.800192575173304,"Code":"13345-HQ-LPL","Parties":"TEAL Development Zambia Limited (100%)","Resource":"","Status":"Expired","Granted":"","Expires":"","guidShap":"71be75b6-9a72-48ec-87d9-0541f6856ced","guidLice":"4469ac2e-b99e-47cd-94dd-422407df72d4","guidSpat":"dc716c43-74f5-4de0-a1a0-2b7840442632","Id":0,"Perimeter":0,"Acres":0,"Hectares":0,"SDEZambia.":0}},{"type":"Feature","id":"11:restricted-areas.3","geometry":{"type":"MultiPolygon","coordinates":[[[[28.2417072,-14.37633203],[28.19170587,-14.37633204],[28.19170586,-14.30133824],[28.23337356,-14.30133823],[28.25004071,-14.30133823],[28.25004071,-14.2846729],[28.25837423,-14.2846729],[28.25837422,-14.26800768],[28.27504137,-14.26800768],[28.27504136,-14.23467703],[28.27504136,-14.20134649],[28.28337488,-14.20134648],[28.28337488,-14.19301387],[28.31670916,-14.19301387],[28.31670916,-14.18468116],[28.32504268,-14.18468116],[28.32504268,-14.15135061],[28.32504267,-14.10968736],[28.30837552,-14.10968736],[28.27504134,-14.10968737],[28.27504133,-14.08468944],[28.300042,-14.08468944],[28.300042,-14.07635683],[28.30837552,-14.07635682],[28.32504266,-14.07635682],[28.32504266,-14.06802421],[28.3417098,-14.06802421],[28.3417098,-14.0596915],[28.36671047,-14.05969149],[28.36671047,-14.05135888],[28.37504399,-14.05135888],[28.39171113,-14.05135888],[28.39171113,-14.04302627],[28.45004598,-14.04302626],[28.45004598,-14.03469355],[28.4583795,-14.03469355],[28.4583795,-14.02636094],[28.48338016,-14.02636093],[28.48338016,-14.01802832],[28.49171378,-14.01802832],[28.49171379,-14.06802418],[28.50004731,-14.06802418],[28.50004731,-14.05969147],[28.50838083,-14.05969147],[28.50838083,-14.05135886],[28.51671445,-14.05135886],[28.51671445,-14.04302625],[28.53338149,-14.04302624],[28.53338149,-14.03469353],[28.54171511,-14.03469353],[28.54171511,-14.02636092],[28.55004863,-14.02636092],[28.55004863,-14.01802831],[28.59171644,-14.0180283],[28.59171644,-14.04302623],[28.58338282,-14.04302623],[28.58338282,-14.05135884],[28.5750493,-14.05135884],[28.5750493,-14.05969145],[28.55838216,-14.05969146],[28.55838216,-14.06802417],[28.55004864,-14.06802417],[28.55004864,-14.07635678],[28.54171512,-14.07635678],[28.54171512,-14.08468939],[28.5333815,-14.08468939],[28.5333815,-14.0930221],[28.52504798,-14.0930221],[28.52504798,-14.10135471],[28.50838084,-14.10135472],[28.50838084,-14.10968733],[28.50004732,-14.10968733],[28.48338018,-14.10968733],[28.48338018,-14.10135472],[28.47504665,-14.10135472],[28.47504665,-14.09302211],[28.45004599,-14.09302212],[28.45004599,-14.10135473],[28.43337885,-14.10135473],[28.43337885,-14.10968734],[28.41671181,-14.10968734],[28.41671181,-14.11802005],[28.39171114,-14.11802006],[28.39171114,-14.12635267],[28.375044,-14.12635267],[28.375044,-14.13468528],[28.35837686,-14.13468529],[28.35837686,-14.143018],[28.34170982,-14.143018],[28.34170982,-14.15135061],[28.34170983,-14.18468115],[28.35004335,-14.18468115],[28.35004336,-14.22634441],[28.38337754,-14.2263444],[28.38337755,-14.25134233],[28.37171064,-14.25134234],[28.37171064,-14.26467453],[28.35171011,-14.26467454],[28.35171011,-14.27634027],[28.33170958,-14.27634028],[28.33170958,-14.28967248],[28.31670918,-14.28967248],[28.31670918,-14.30467124],[28.29504191,-14.30467124],[28.29504191,-14.30800437],[28.27670812,-14.30800437],[28.27670812,-14.31467042],[28.25504084,-14.31467042],[28.25504084,-14.32300314],[28.23337357,-14.32300314],[28.23337357,-14.33633534],[28.22504005,-14.33633534],[28.22504005,-14.34800108],[28.21837317,-14.34800108],[28.21837317,-14.35466713],[28.21003965,-14.35466713],[28.21003965,-14.3646663],[28.2417072,-14.3646663],[28.2417072,-14.36133327],[28.27004125,-14.36133327],[28.27004125,-14.35300066],[28.29504192,-14.35300065],[28.29504191,-14.34300148],[28.35004338,-14.34300147],[28.35004338,-14.37633202],[28.32504272,-14.37633202],[28.32504272,-14.40132996],[28.39004445,-14.40132995],[28.39004447,-14.461325],[28.33670975,-14.46132501],[28.33670974,-14.45965844],[28.33170961,-14.45965845],[28.33170961,-14.45799198],[28.32837612,-14.45799198],[28.32837612,-14.45632542],[28.32337599,-14.45632542],[28.32337599,-14.45465886],[28.3200426,-14.45465886],[28.3200426,-14.4529924],[28.31670921,-14.4529924],[28.31670921,-14.45132583],[28.31337572,-14.45132584],[28.31337572,-14.44965927],[28.31004233,-14.44965927],[28.31004233,-14.44799281],[28.30837559,-14.44799281],[28.30837559,-14.44632625],[28.30837559,-14.44299322],[28.30837558,-14.40966257],[28.29170854,-14.40966258],[28.29170853,-14.39299735],[28.26670787,-14.39299736],[28.26670787,-14.38466464],[28.25837425,-14.38466464],[28.25837424,-14.37633203],[28.2417072,-14.37633203]]]]},"geometry_name":"the_geom","properties":{"OBJECTID":3,"Name":"LPL 57","Shape.area":0.041111105565342,"Shape.len":2.456666198186497,"Code":"13347-HQ-LPL","Parties":"TEAL Development Zambia Limited (100%)","Resource":"","Status":"Expired","Granted":"","Expires":"","guidShap":"0d50b6b0-bbfe-4a33-8ef4-15e894e709ff","guidLice":"4469ac2e-b99e-47cd-94dd-422407df72d4","guidSpat":"dc716c43-74f5-4de0-a1a0-2b7840442632","Id":0,"Perimeter":0,"Acres":0,"Hectares":0,"SDEZambia.":0}},{"type":"Feature","id":"11:restricted-areas.4","geometry":{"type":"MultiPolygon","coordinates":[[[[21.99987515,-13.00144536],[22.99990155,-13.00144579],[22.99990114,-14.00136242],[22.73600524,-14.00108453],[22.00126397,-13.22559329],[21.99987515,-13.00144536]]]]},"geometry_name":"the_geom","properties":{"OBJECTID":4,"Name":"","Shape.area":0.713617091215692,"Shape.len":3.556377906375709,"Code":"LPL 144","Parties":"Caledonia Nama Limited (100%)","Resource":"Cu, DIA, Co, Ag, Au","Status":"Expired","Granted":"","Expires":"","guidShap":"ec70bbf5-a265-4c96-85b8-83a2327c8168","guidLice":"4469ac2e-b99e-47cd-94dd-422407df72d4","guidSpat":"dc716c43-74f5-4de0-a1a0-2b7840442632","Id":0,"Perimeter":0,"Acres":0,"Hectares":0,"SDEZambia.":0}},{"type":"Feature","id":"11:restricted-areas.5","geometry":{"type":"MultiPolygon","coordinates":[[[[29.15003344,-9.00230643],[29.00002956,-9.20259922],[28.90002698,-9.41927061],[28.72345237,-9.42034055],[28.72835249,-9.41927064],[29.02104007,-9.00208647],[29.15003344,-9.00230643]]]]},"geometry_name":"the_geom","properties":{"OBJECTID":5,"Name":"","Shape.area":0.056589586968615,"Shape.len":1.309119660815568,"Code":"LPL 204","Parties":"Anvil Mining Limited (100%)","Resource":"Pb, Cu, Co, Ag, Zn, Au","Status":"Expired","Granted":"","Expires":"","guidShap":"1fa310fc-3ca2-4f10-8308-fe66846d41eb","guidLice":"4469ac2e-b99e-47cd-94dd-422407df72d4","guidSpat":"dc716c43-74f5-4de0-a1a0-2b7840442632","Id":0,"Perimeter":0,"Acres":0,"Hectares":0,"SDEZambia.":0}},{"type":"Feature","id":"11:restricted-areas.6","geometry":{"type":"MultiPolygon","coordinates":[[[[24.99800984,-13.81137878],[25.17940346,-13.81554516],[25.13023552,-14.0066404],[24.99717638,-14.00664038],[24.9974542,-13.95914431],[24.87078413,-13.95803328],[24.87161757,-13.87776214],[24.81467156,-13.87720658],[24.81494938,-13.83748767],[24.99800984,-13.83915427],[24.99800984,-13.81137878]]]]},"geometry_name":"the_geom","properties":{"OBJECTID":6,"Name":"","Shape.area":0.047839198481051,"Shape.len":1.073792383971137,"Code":"LPL 254","Parties":"G.N. Mining Limited (100%)","Resource":"","Status":"Expired","Granted":"","Expires":"","guidShap":"9784d320-b329-4d5e-a70e-2388d128a8e9","guidLice":"4469ac2e-b99e-47cd-94dd-422407df72d4","guidSpat":"dc716c43-74f5-4de0-a1a0-2b7840442632","Id":0,"Perimeter":0,"Acres":0,"Hectares":0,"SDEZambia.":0}},{"type":"Feature","id":"11:restricted-areas.7","geometry":{"type":"MultiPolygon","coordinates":[[[[26.61688615,-13.03922113],[26.84980902,-13.03749907],[26.83661418,-13.64111529],[26.61455278,-13.64086531],[26.61444158,-13.72238633],[26.0994279,-13.72110862],[26.09992793,-13.56806585],[26.61208042,-13.39624679],[26.61688615,-13.03922113]]]]},"geometry_name":"the_geom","properties":{"OBJECTID":7,"Name":"","Shape.area":0.261375592870835,"Shape.len":2.70566026259595,"Code":"LPL 256","Parties":"G.N. Mining Limited (100%)","Resource":"Cu","Status":"Expired","Granted":"","Expires":"","guidShap":"12ce85b1-b8ba-4f54-9c5e-fb98b7877e4a","guidLice":"4469ac2e-b99e-47cd-94dd-422407df72d4","guidSpat":"dc716c43-74f5-4de0-a1a0-2b7840442632","Id":0,"Perimeter":0,"Acres":0,"Hectares":0,"SDEZambia.":0}},{"type":"Feature","id":"11:restricted-areas.8","geometry":{"type":"MultiPolygon","coordinates":[[[[26.20884648,-12.39401749],[26.29899886,-12.39425748],[26.35213026,-12.48481986],[26.26010783,-12.48457987],[26.20884648,-12.39401749]]]]},"geometry_name":"the_geom","properties":{"OBJECTID":8,"Name":"","Shape.area":0.00823704166543,"Shape.len":0.391243818331895,"Code":"LPL 283","Parties":"Australian Africa Global Investments (0%)","Resource":"","Status":"Expired","Granted":"","Expires":"","guidShap":"fb8ab4c7-2d1b-4beb-ab34-e72166032a30","guidLice":"4469ac2e-b99e-47cd-94dd-422407df72d4","guidSpat":"dc716c43-74f5-4de0-a1a0-2b7840442632","Id":0,"Perimeter":0,"Acres":0,"Hectares":0,"SDEZambia.":0}},{"type":"Feature","id":"11:restricted-areas.9","geometry":{"type":"MultiPolygon","coordinates":[[[[27.00000736,-11.94301256],[27.16532472,-11.94296356],[27.16533872,-11.96557165],[27.22044918,-11.96553365],[27.22043118,-11.94292556],[27.36737805,-11.94277256],[27.36729304,-11.87947092],[27.40402101,-11.87942092],[27.46843472,-11.96070804],[27.31688672,-11.96092003],[27.31692872,-11.99709198],[27.00000737,-11.99727097],[27.00000736,-11.94301256]]]]},"geometry_name":"the_geom","properties":{"OBJECTID":9,"Name":"","Shape.area":0.02246091818724,"Shape.len":1.175233374278372,"Code":"LPL 298","Parties":"Londoloza Mining and Exploration Ltd (100%)","Resource":"QTZ, Ta, Sn","Status":"Expired","Granted":"","Expires":"","guidShap":"d852c63d-8c7f-4ffa-86f5-7ae4fcd5b0b4","guidLice":"4469ac2e-b99e-47cd-94dd-422407df72d4","guidSpat":"dc716c43-74f5-4de0-a1a0-2b7840442632","Id":0,"Perimeter":0,"Acres":0,"Hectares":0,"SDEZambia.":0}}]}